[Satellite]
VERSION=1.1
NAME=ASTRA 1N
NICKNAME=ASTRA 1N
TLE1=1 37775U 11041A   15054.26852803  .00000095  00000-0  00000+0 0  9998
TLE2=2 37775   0.0627 354.8610 0004487  16.8571 257.0043  1.00277331 13003
